QIANFAN-89              
1 63175U 25046S   25239.55699311  .00000167  00000+0  24023-3 0  9996
2 63175  88.9863 331.0953 0018337  79.6004 280.7213 13.50970899 32939
QIANFAN-90              
1 63176U 25046T   25239.58579869  .00000164  00000+0  23513-3 0  9995
2 63176  88.9863 331.0646 0015236  78.7128 281.5734 13.50970005 32959
